site_name,Short_site_name,VerifiedAddress,X,Y,LocConf,results
"129-145 Harrington Street, Sydney",129-145 Harrington Street,"129 Harrington St, The Rocks NSW 2000, Australia",151.2063299,-33.8625385,Great - Google,"('129 Harrington St, The Rocks NSW 2000, Australia', 151.2063299, -33.8625385, 'Great - Google')"
"173-179 Broadway, Ultimo",Broadway Picture Theatre,"173-179 Broadway, Ultimo NSW 2007, Australia",151.1965778,-33.8839769,Great - Google,"('173-179 Broadway, Ultimo NSW 2007, Australia', 151.1965778, -33.8839769, 'Great - Google')"
"1855 Parramatta Railway Terminus, Mort Street, Granville",1855 Parramatta Railway Terminus,"Mort St, Granville NSW 2142, Australia",151.0072447,-33.828851,GEOMETRIC_CENTER,"('Mort St, Granville NSW 2142, Australia', 151.0072447, -33.828851, 'GEOMETRIC_CENTER')"
"2-12 Macquarie St, Parramatta",2-12 Macquarie St,"2-12 Macquarie St, Parramatta NSW 2150, Australia",151.0008758,-33.8140412,Great - Google,"('2-12 Macquarie St, Parramatta NSW 2150, Australia', 151.0008758, -33.8140412, 'Great - Google')"
"265 Fifteenth Avenue, West Hoxton",265 Fifteenth Avenue,"265 Fifteenth Ave, Austral NSW 2179, Australia",150.8259057,-33.9195479,Great - Google,"('265 Fifteenth Ave, Austral NSW 2179, Australia', 150.8259057, -33.9195479, 'Great - Google')"
"4 George Street, Parramatta",4 George Street,"4 George St, Parramatta NSW 2150, Australia",151.0016298,-33.8129896,Great - Google,"('4 George St, Parramatta NSW 2150, Australia', 151.0016298, -33.8129896, 'Great - Google')"
"Bald Face Point Reserve, Blakehurst",Bald Face Point Reserve,"Bald Face Point, Blakehurst NSW 2221, Australia",151.1027124,-34.0009539,APPROXIMATE,"('Bald Face Point, Blakehurst NSW 2221, Australia', 151.1027124, -34.0009539, 'APPROXIMATE')"
"basketball court, Hyland Farm Road, Greystanes",Hyland Farm Road Group,"Greystanes Sportsground, Greystanes NSW 2145, Australia",150.9390975,-33.8294314,GEOMETRIC_CENTER,"('Greystanes Sportsground, Greystanes NSW 2145, Australia', 150.9390975, -33.8294314, 'GEOMETRIC_CENTER')"
between Southern Cross Drive and General Holmes Drive,between Southern Cross Drive and General Holmes Drive,"Southern Cross Dr & General Holmes Dr, Mascot NSW 2020, Australia",151.1918063,-33.9429674,GEOMETRIC_CENTER,"('Southern Cross Dr & General Holmes Dr, Mascot NSW 2020, Australia', 151.1918063, -33.9429674, 'GEOMETRIC_CENTER')"
"Botany Water Works, Sydney",Botany Water Works,"1102 Botany Rd, Botany NSW 2019, Australia",151.1959713,-33.9440215,Great - Google,"('1102 Botany Rd, Botany NSW 2019, Australia', 151.1959713, -33.9440215, 'Great - Google')"
"Bradfield Park, Milson's Point",Bradfield Park,"Bradfield Park, Milsons Point NSW 2061, Australia",151.2125243,-33.8506782,GEOMETRIC_CENTER,"('Bradfield Park, Milsons Point NSW 2061, Australia', 151.2125243, -33.8506782, 'GEOMETRIC_CENTER')"
"Burwood copper smelter, Glenrock lagoon",Burwood copper smelter,"Glenrock State Conservation Area, Yuelarbah Track, Highfields NSW 2289, Australia",151.7283958,-32.9589918,GEOMETRIC_CENTER,"('Glenrock State Conservation Area, Yuelarbah Track, Highfields NSW 2289, Australia', 151.7283958, -32.9589918, 'GEOMETRIC_CENTER')"
"Callan Point and Yurulbin point, Leichhardt",Callan Point and Yurulbin point,"Wharf Rd, Lilyfield NSW 2040, Australia",151.157981,-33.8706132,GEOMETRIC_CENTER,"('Wharf Rd, Lilyfield NSW 2040, Australia', 151.157981, -33.8706132, 'GEOMETRIC_CENTER')"
"Carrington watchhouse, Carrington Village",Carrington watchhouse,"Carrington NSW 2294, Australia",151.768,-32.915,APPROXIMATE,"('Carrington NSW 2294, Australia', 151.768, -32.915, 'APPROXIMATE')"
"Cliftonville Road, Upper Half Moon Reach Hawkesbury River, Lower Portland",Cliftonville Road,"1558 River Rd, Lower Portland NSW 2756, Australia",150.9193917,-33.4341154,Great - Google,"('1558 River Rd, Lower Portland NSW 2756, Australia', 150.9193917, -33.4341154, 'Great - Google')"
"coastal cliff walk, South Head",coastal cliff walk,"South Head, Watsons Bay NSW 2030, Australia",151.2804258,-33.8332187,APPROXIMATE,"('South Head, Watsons Bay NSW 2030, Australia', 151.2804258, -33.8332187, 'APPROXIMATE')"
"Commonwealth Analytical Laboratories, Suakin Street Pymble",Commonwealth Analytical Laboratories,"Suakin St, Pymble NSW 2073, Australia",151.1437657,-33.7511353,GEOMETRIC_CENTER,"('Suakin St, Pymble NSW 2073, Australia', 151.1437657, -33.7511353, 'GEOMETRIC_CENTER')"
"Como House, Victoria",Como House,"Como House & Garden, Williams Rd & Lechlade Ave, South Yarra VIC 3141, Australia",145.0037089,-37.8379104,GEOMETRIC_CENTER,"('Como House & Garden, Williams Rd & Lechlade Ave, South Yarra VIC 3141, Australia', 145.0037089, -37.8379104, 'GEOMETRIC_CENTER')"
Cowpasture Road (North Liverpool road to the West Link M7 Motorway),Cowpasture Road (North Liverpool road to the West Link M7 Motorway),not found,unknown,unknown,unknown,"('not found', 'unknown', 'unknown', 'unknown')"
"Driver and John Hargreaves Avenues, Moore Park",Driver and John Hargreaves Avenues,"Driver Ave & John Hargreaves Ave, Moore Park NSW 2021, Australia",151.2236706,-33.8932417,GEOMETRIC_CENTER,"('Driver Ave & John Hargreaves Ave, Moore Park NSW 2021, Australia', 151.2236706, -33.8932417, 'GEOMETRIC_CENTER')"
"Eastern Suburbs Memorial Park, Matraville",Eastern Suburbs Memorial Park,"Eastern Suburbs Funeral Services, 12 Military Rd, Matraville NSW 2036, Australia",151.2272292,-33.9727023,Great - Google,"('Eastern Suburbs Funeral Services, 12 Military Rd, Matraville NSW 2036, Australia', 151.2272292, -33.9727023, 'Great - Google')"
"Ebenezer Mission, Victoria",Ebenezer Mission,"Victoria, Australia",144.7851531,-37.4713077,APPROXIMATE,"('Victoria, Australia', 144.7851531, -37.4713077, 'APPROXIMATE')"
"Emmaus Village, Kemps Creek",Emmaus Village,"85 Bakers Ln, Kemps Creek NSW 2178, Australia",150.7932437,-33.8274719,Great - Google,"('85 Bakers Ln, Kemps Creek NSW 2178, Australia', 150.7932437, -33.8274719, 'Great - Google')"
"Fitzroy Bridge, Windsor",Fitzroy Bridge,"Fitzroy Bridge, Windsor NSW 2756, Australia",150.8253321,-33.6065938,GEOMETRIC_CENTER,"('Fitzroy Bridge, Windsor NSW 2756, Australia', 150.8253321, -33.6065938, 'GEOMETRIC_CENTER')"
"Garfield Barwick Commonwealth Law Courts Building, Parramatta",Garfield Barwick Commonwealth Law Courts Building,"Garfield Barwick Commonwealth Law Courts Building, 1-3 George St, Parramatta NSW 2150, Australia",151.0010671,-33.8131666,Great - Google,"('Garfield Barwick Commonwealth Law Courts Building, 1-3 George St, Parramatta NSW 2150, Australia', 151.0010671, -33.8131666, 'Great - Google')"
"Government House, Sydney",Government House,"Macquarie St, Sydney NSW 2000, Australia",151.2148495,-33.8596434,GEOMETRIC_CENTER,"('Macquarie St, Sydney NSW 2000, Australia', 151.2148495, -33.8596434, 'GEOMETRIC_CENTER')"
"Green Road Reserve, Kellyville",Green Road Reserve,"Centenary of ANZAC Reserve, Cnr Wrights Rd & Green Rd, Castle Hill NSW 2154, Australia",150.9740105,-33.7156833,GEOMETRIC_CENTER,"('Centenary of ANZAC Reserve, Cnr Wrights Rd & Green Rd, Castle Hill NSW 2154, Australia', 150.9740105, -33.7156833, 'GEOMETRIC_CENTER')"
"Hungry Beach fortifications, Ku-ring-gai Chase National Park",Hungry Beach fortifications,"Ku-ring-gai Chase National Park, Bobbin Head Rd, New South Wales, Australia",151.245131,-33.621874,GEOMETRIC_CENTER,"('Ku-ring-gai Chase National Park, Bobbin Head Rd, New South Wales, Australia', 151.245131, -33.621874, 'GEOMETRIC_CENTER')"
Hunters Hill Bowling Club,Hunters Hill Bowling Club,"12-20 Madeline St, Hunters Hill NSW 2110, Australia",151.1537744,-33.8331312,Great - Google,"('12-20 Madeline St, Hunters Hill NSW 2110, Australia', 151.1537744, -33.8331312, 'Great - Google')"
"Jacksons Landing, Pyrmont",Jacksons Landing,"52B Bowman St, Pyrmont NSW 2009, Australia",151.1901253,-33.8671707,Great - Google,"('52B Bowman St, Pyrmont NSW 2009, Australia', 151.1901253, -33.8671707, 'Great - Google')"
"KENS Site, Sydney",KENS Site,"1 Hickson Rd, The Rocks NSW 2000, Australia",151.2093777,-33.8577724,Great - Google,"('1 Hickson Rd, The Rocks NSW 2000, Australia', 151.2093777, -33.8577724, 'Great - Google')"
Kirrawee Living Centres Project,Kirrawee Living Centres Project,"4019/17 Patrick St, Blacktown NSW 2148, Australia",150.907849,-33.7707516,Great - Google,"('4019/17 Patrick St, Blacktown NSW 2148, Australia', 150.907849, -33.7707516, 'Great - Google')"
Lady Bay,Lady Bay,"Lady Bay Beach, New South Wales, Australia",151.2794335,-33.83553820000001,APPROXIMATE,"('Lady Bay Beach, New South Wales, Australia', 151.2794335, -33.83553820000001, 'APPROXIMATE')"
"Lake Condah Aboriginal mission, Victoria",Lake Condah Aboriginal mission,"Lake Condah, Breakaway Creek VIC 3303, Australia",141.8324645,-38.0624522,APPROXIMATE,"('Lake Condah, Breakaway Creek VIC 3303, Australia', 141.8324645, -38.0624522, 'APPROXIMATE')"
"Lot 14 Hall St, Pitt Town",Lot 14 Hall St,"14 Hall St, Pitt Town NSW 2756, Australia",150.859959,-33.5724858,Great - Google,"('14 Hall St, Pitt Town NSW 2756, Australia', 150.859959, -33.5724858, 'Great - Google')"
"McCauley?s Beach, Thirroul",McCauley?s Beach,"McCauleyâ€™s Beach, South, Pacific Motorway, Ocean Shores, Australia",150.9246939,-34.32659770000001,GEOMETRIC_CENTER,"('McCauley\xe2\x80\x99s Beach, South, Pacific Motorway, Ocean Shores, Australia', 150.9246939, -34.32659770000001, 'GEOMETRIC_CENTER')"
"Meeting Place Precinct, Botany Bay National Park, Kurnell",Meeting Place Precinct,"Kamay Botany Bay National Park, Cape Solander Dr, Kurnell NSW 2231, Australia",151.2275353,-34.0094368,GEOMETRIC_CENTER,"('Kamay Botany Bay National Park, Cape Solander Dr, Kurnell NSW 2231, Australia', 151.2275353, -34.0094368, 'GEOMETRIC_CENTER')"
"Minnaville, Castlereagh",Minnaville,"Minnaville Cl, Glenmore Park NSW 2745, Australia",150.6924856,-33.8045549,GEOMETRIC_CENTER,"('Minnaville Cl, Glenmore Park NSW 2745, Australia', 150.6924856, -33.8045549, 'GEOMETRIC_CENTER')"
"Morts Dock, Balmain",Morts Dock,"Mort Bay Park, Mort St, Birchgrove NSW 2041, Australia",151.184063,-33.853842,GEOMETRIC_CENTER,"('Mort Bay Park, Mort St, Birchgrove NSW 2041, Australia', 151.184063, -33.853842, 'GEOMETRIC_CENTER')"
"Mount Adelaide Estate, Double Bay",Mount Adelaide Estate,"Mount Adelaide St, Darling Point NSW 2027, Australia",151.2383703,-33.8731046,GEOMETRIC_CENTER,"('Mount Adelaide St, Darling Point NSW 2027, Australia', 151.2383703, -33.8731046, 'GEOMETRIC_CENTER')"
"Mount Jerrabombera, Queanbeyan",Mount Jerrabombera,"Mount Jerrabomberra, Jerrabomberra NSW 2619, Australia",149.2127757,-35.3750016,APPROXIMATE,"('Mount Jerrabomberra, Jerrabomberra NSW 2619, Australia', 149.2127757, -35.3750016, 'APPROXIMATE')"
North Sydney Boys High School,North Sydney Boys High School,"170 Falcon St, North Sydney NSW 2060, Australia",151.2075487,-33.8292864,Great - Google,"('170 Falcon St, North Sydney NSW 2060, Australia', 151.2075487, -33.8292864, 'Great - Google')"
"Oatlands Court House, Tasmania",Oatlands Court House,"97-99 Goulburn St, Sydney NSW 2000, Australia",151.2083057,-33.8783435,Great - Google,"('97-99 Goulburn St, Sydney NSW 2000, Australia', 151.2083057, -33.8783435, 'Great - Google')"
"Paragon Iron Foundry Bulwara Road, Pyrmont",Paragon Iron Foundry Bulwara Road,"Bulwara Rd, Pyrmont NSW 2009, Australia",151.1948456,-33.8733095,GEOMETRIC_CENTER,"('Bulwara Rd, Pyrmont NSW 2009, Australia', 151.1948456, -33.8733095, 'GEOMETRIC_CENTER')"
"Park Road, Wallacia",Park Road,"Park Rd, Wallacia NSW 2745, Australia",150.6600875,-33.8701852,GEOMETRIC_CENTER,"('Park Rd, Wallacia NSW 2745, Australia', 150.6600875, -33.8701852, 'GEOMETRIC_CENTER')"
"Parramatta River, Parramatta",Parramatta River,"Parramatta River, New South Wales, Australia",151.0923358,-33.8344427,APPROXIMATE,"('Parramatta River, New South Wales, Australia', 151.0923358, -33.8344427, 'APPROXIMATE')"
"Penrith Lakes scheme area, Castlereagh",Penrith Lakes scheme area,"89-151 Old Castlereagh Rd, Castlereagh NSW 2749, Australia",150.6831324,-33.7272766,Great - Google,"('89-151 Old Castlereagh Rd, Castlereagh NSW 2749, Australia', 150.6831324, -33.7272766, 'Great - Google')"
"Penrith Lakes Scheme area, Cranebrook",Penrith Lakes Scheme area,"153-233 Old Castlereagh Rd, Cranebrook NSW 2749, Australia",150.6697532,-33.7259842,Great - Google,"('153-233 Old Castlereagh Rd, Cranebrook NSW 2749, Australia', 150.6697532, -33.7259842, 'Great - Google')"
"public domain ""under the freeway"" at Bulwarra Rd & Harris St., Ultimo","public domain ""under the freeway"" at Bulwarra Rd & Harris St.","1 Barnhill Rd, Terrigal NSW 2260, Australia",151.4412518,-33.4433799,Great - Google,"('1 Barnhill Rd, Terrigal NSW 2260, Australia', 151.4412518, -33.4433799, 'Great - Google')"
"Queens Park, Brisbane",Queens Park,"Queens Gardens, 144 George St, Brisbane City QLD 4000, Australia",153.0242319,-27.4722517,Great - Google,"('Queens Gardens, 144 George St, Brisbane City QLD 4000, Australia', 153.0242319, -27.4722517, 'Great - Google')"
"Rangihou Reserve, Parramatta",Rangihou Reserve,"Rangihou Reserve, Macarthur St, Parramatta NSW 2150, Australia",151.0151519,-33.8155042,GEOMETRIC_CENTER,"('Rangihou Reserve, Macarthur St, Parramatta NSW 2150, Australia', 151.0151519, -33.8155042, 'GEOMETRIC_CENTER')"
Rouse Hill,Rouse Hill,"Rouse Hill NSW 2155, Australia",150.91552,-33.68162,APPROXIMATE,"('Rouse Hill NSW 2155, Australia', 150.91552, -33.68162, 'APPROXIMATE')"
"Royal Exhibition Building, Carlton, Victoria",Royal Exhibition Building,"9 Nicholson St, Carlton VIC 3053, Australia",144.9716502,-37.8046891,Great - Google,"('9 Nicholson St, Carlton VIC 3053, Australia', 144.9716502, -37.8046891, 'Great - Google')"
"Royal Hospital for Women, Paddington",Royal Hospital for Women,"Royal Hospital for Women Park, Glenmore Rd, Paddington NSW 2021, Australia",151.225361,-33.882495,GEOMETRIC_CENTER,"('Royal Hospital for Women Park, Glenmore Rd, Paddington NSW 2021, Australia', 151.225361, -33.882495, 'GEOMETRIC_CENTER')"
Sandon Point residential subdivision,Sandon Point residential subdivision,"Sandon Point Beach, Bulli NSW 2516, Australia",150.9247345,-34.3354444,APPROXIMATE,"('Sandon Point Beach, Bulli NSW 2516, Australia', 150.9247345, -34.3354444, 'APPROXIMATE')"
"Scarborough House, The Rocks",Scarborough House,"12, Level 2/26 Playfair St, The Rocks NSW 2000, Australia",151.208391,-33.8588629,Great - Google,"('12, Level 2/26 Playfair St, The Rocks NSW 2000, Australia', 151.208391, -33.8588629, 'Great - Google')"
Scheyville development area,Scheyville development area,"Scheyville NSW 2756, Australia",150.88291,-33.6112,APPROXIMATE,"('Scheyville NSW 2756, Australia', 150.88291, -33.6112, 'APPROXIMATE')"
Secure Parking - Eat Street Car Park,Secure Parking - Eat Street Car Park,"30 George St, Parramatta NSW 2150, Australia",151.0047691,-33.8130761,Great - Google,"('30 George St, Parramatta NSW 2150, Australia', 151.0047691, -33.8130761, 'Great - Google')"
"South Western Institute of Tafe, Liverpool",South Western Institute of Tafe,"Banks Rd, Miller NSW 2168, Australia",150.873366,-33.9261514,GEOMETRIC_CENTER,"('Banks Rd, Miller NSW 2168, Australia', 150.873366, -33.9261514, 'GEOMETRIC_CENTER')"
St Marys Munitions Factory,St Marys Munitions Factory,"St Marys NSW 2760, Australia",150.770101,-33.7351085,GEOMETRIC_CENTER,"('St Marys NSW 2760, Australia', 150.770101, -33.7351085, 'GEOMETRIC_CENTER')"
third Sydney runway,third Sydney runway,"8/38 Canterbury Rd, Bankstown NSW 2200, Australia",151.0360188,-33.935562,Great - Google,"('8/38 Canterbury Rd, Bankstown NSW 2200, Australia', 151.0360188, -33.935562, 'Great - Google')"
Ultimo Aquatic Centre,Ultimo Aquatic Centre,"458 Harris St, Ultimo NSW 2007, Australia",151.1988611,-33.8774042,Great - Google,"('458 Harris St, Ultimo NSW 2007, Australia', 151.1988611, -33.8774042, 'Great - Google')"
"Victoria Lodge, Royal Botanic Gardens",Victoria Lodge,"Victoria Lodge, Mrs Macquaries Rd, Sydney NSW 2000, Australia",151.220525,-33.8626822,Great - Google,"('Victoria Lodge, Mrs Macquaries Rd, Sydney NSW 2000, Australia', 151.220525, -33.8626822, 'Great - Google')"
Voyager Point,Voyager Point,"Voyager Point NSW 2172, Australia",150.979,-33.959,APPROXIMATE,"('Voyager Point NSW 2172, Australia', 150.979, -33.959, 'APPROXIMATE')"
"Western Arm, Prospect",Western Arm,"385 Reservoir Rd, Prospect NSW 2148, Australia",150.9027248,-33.8071531,Great - Google,"('385 Reservoir Rd, Prospect NSW 2148, Australia', 150.9027248, -33.8071531, 'Great - Google')"
"Wharf 11, Woolloomooloo",Wharf 11,"6 Cowper Wharf Rd, Woolloomooloo NSW 2011, Australia",151.2207453,-33.8685211,Great - Google,"('6 Cowper Wharf Rd, Woolloomooloo NSW 2011, Australia', 151.2207453, -33.8685211, 'Great - Google')"
"White Bay, Sydney Harbour",White Bay,"White Bay, New South Wales, Australia",151.1851115,-33.8635949,APPROXIMATE,"('White Bay, New South Wales, Australia', 151.1851115, -33.8635949, 'APPROXIMATE')"
Windsor Bridge,Windsor Bridge,"Windsor Bridge, Bridge St, Freemans Reach NSW 2756, Australia",150.8222356,-33.6032647,GEOMETRIC_CENTER,"('Windsor Bridge, Bridge St, Freemans Reach NSW 2756, Australia', 150.8222356, -33.6032647, 'GEOMETRIC_CENTER')"
"Woodbine, Port Fairy, Victoria",Woodbine,"Woodbine Rd, Port Fairy VIC 3284, Australia",142.2824834,-38.3597425,GEOMETRIC_CENTER,"('Woodbine Rd, Port Fairy VIC 3284, Australia', 142.2824834, -38.3597425, 'GEOMETRIC_CENTER')"
Woollahra Public School,Woollahra Public School,"Forth St, Woollahra NSW 2025, Australia",151.2412598,-33.886567,GEOMETRIC_CENTER,"('Forth St, Woollahra NSW 2025, Australia', 151.2412598, -33.886567, 'GEOMETRIC_CENTER')"
"Henry Deane Place, Sydney",Henry Deane Place,"35 Bettington St, Millers Point NSW 2000, Australia",151.2021441,-33.8579577,Great - Google,"('35 Bettington St, Millers Point NSW 2000, Australia', 151.2021441, -33.8579577, 'Great - Google')"
"Lawson Site, Botanic Gardens, Sydney",Lawson Site,"Royal Botanic Gardens, Mrs Macquaries Rd, Sydney NSW 2000, Australia",151.2165708,-33.8641859,GEOMETRIC_CENTER,"('Royal Botanic Gardens, Mrs Macquaries Rd, Sydney NSW 2000, Australia', 151.2165708, -33.8641859, 'GEOMETRIC_CENTER')"
"126-130 George Street, Parramatta",126-130 George Street,"126-130 George St, Parramatta NSW 2150, Australia",151.008113,-33.8141605,Great - Google,"('126-130 George St, Parramatta NSW 2150, Australia', 151.008113, -33.8141605, 'Great - Google')"
"2 Cardigan Lane, Camperdown",2 Cardigan Lane,"2 Cardigan Ln, Camperdown NSW 2050, Australia",151.1734135,-33.8881377,Great - Google,"('2 Cardigan Ln, Camperdown NSW 2050, Australia', 151.1734135, -33.8881377, 'Great - Google')"
"3 Barrack Lane, Parramatta",3 Barrack Lane,"3 Barrack Ln, Parramatta NSW 2150, Australia",151.0070443,-33.8151847,Great - Google,"('3 Barrack Ln, Parramatta NSW 2150, Australia', 151.0070443, -33.8151847, 'Great - Google')"
"32 Merriman Street and 55 Kent Street, Millers Point",32 Merriman Street and 55 Kent Street,"32 Merriman St, Millers Point NSW 2000, Australia",151.2020141,-33.8574539,Great - Google,"('32 Merriman St, Millers Point NSW 2000, Australia', 151.2020141, -33.8574539, 'Great - Google')"
"6 Cowper Wharf Rd, Woolloomooloo",6 Cowper Wharf Rd,"6 Cowper Wharf Rd, Woolloomooloo NSW 2011, Australia",151.2210816,-33.8675479,Great - Google,"('6 Cowper Wharf Rd, Woolloomooloo NSW 2011, Australia', 151.2210816, -33.8675479, 'Great - Google')"
"Agar Steps Terraces, Millers Point",Agar Steps Terraces,"Agar Steps, Millers Point NSW 2000, Australia",151.2037745,-33.8609917,GEOMETRIC_CENTER,"('Agar Steps, Millers Point NSW 2000, Australia', 151.2037745, -33.8609917, 'GEOMETRIC_CENTER')"
"Alan Davidson Park, Wyoming",Alan Davidson Park,"Alan Davidson Oval, 30 Renwick St, Wyoming NSW 2250, Australia",151.3543366,-33.4026566,Great - Google,"('Alan Davidson Oval, 30 Renwick St, Wyoming NSW 2250, Australia', 151.3543366, -33.4026566, 'Great - Google')"
"Alfred Street, Circular Quay",Alfred Street,"Alfred St, Sydney NSW 2000, Australia",151.2104867,-33.861491,GEOMETRIC_CENTER,"('Alfred St, Sydney NSW 2000, Australia', 151.2104867, -33.861491, 'GEOMETRIC_CENTER')"
"Area 25, 14 Pottinger Street, Dawes Point",Area 25,"25/14 Pottinger St, Dawes Point NSW 2000, Australia",151.2062714,-33.8567578,Great - Google,"('25/14 Pottinger St, Dawes Point NSW 2000, Australia', 151.2062714, -33.8567578, 'Great - Google')"
"Argyle Bond Store, The Rocks",Argyle Bond Store,"18 Argyle St, The Rocks NSW 2000, Australia",151.2078233,-33.858989,Great - Google,"('18 Argyle St, The Rocks NSW 2000, Australia', 151.2078233, -33.858989, 'Great - Google')"
"Army Depot, Charles Street, Leichhardt",Army Depot,not found,unknown,unknown,unknown,"('not found', 'unknown', 'unknown', 'unknown')"
"Arnott's Biscuit Factory, Homebush",Arnott's Biscuit Factory,"24 George St, North Strathfield NSW 2137, Australia",151.088002,-33.863024,Great - Google,"('24 George St, North Strathfield NSW 2137, Australia', 151.088002, -33.863024, 'Great - Google')"
"Athol Gardens Complex, Bradley's Head",Athol Gardens Complex,"Sydney Harbour National Park, Bradleys Head Rd, Mosman NSW 2088, Australia",151.2452603,-33.8429452,GEOMETRIC_CENTER,"('Sydney Harbour National Park, Bradleys Head Rd, Mosman NSW 2088, Australia', 151.2452603, -33.8429452, 'GEOMETRIC_CENTER')"
"Australian Arms Inn and Old Post Office, Emu Plains",Australian Arms Inn and Old Post Office,"Great Western Hwy & Gardenia Ave, Emu Plains NSW 2750, Australia",150.6693916,-33.7497223,GEOMETRIC_CENTER,"('Great Western Hwy & Gardenia Ave, Emu Plains NSW 2750, Australia', 150.6693916, -33.7497223, 'GEOMETRIC_CENTER')"
"Babes in the Wood, 20 Smith Street, Parramatta",Babes in the Wood,"20 Smith St, Parramatta NSW 2150, Australia",151.0066578,-33.8145864,Great - Google,"('20 Smith St, Parramatta NSW 2150, Australia', 151.0066578, -33.8145864, 'Great - Google')"
"Balcombe Heights Community Centre, Baulkham Hills",Balcombe Heights Community Centre,"90-92/90-92 Seven Hills Rd, Baulkham Hills NSW 2153, Australia",150.9816943,-33.7663658,Great - Google,"('90-92/90-92 Seven Hills Rd, Baulkham Hills NSW 2153, Australia', 150.9816943, -33.7663658, 'Great - Google')"
"Banks Road Site, Castle Hill",Banks Road Site,"Banks Rd, Castle Hill NSW 2154, Australia",151.0103099,-33.7207483,GEOMETRIC_CENTER,"('Banks Rd, Castle Hill NSW 2154, Australia', 151.0103099, -33.7207483, 'GEOMETRIC_CENTER')"
"Bigge Park, Liverpool",Bigge Park,"Bigge Park, 124 Bigge St, Liverpool NSW 2170, Australia",150.9280462,-33.9216643,Great - Google,"('Bigge Park, 124 Bigge St, Liverpool NSW 2170, Australia', 150.9280462, -33.9216643, 'Great - Google')"
"Bird and Lucas, Ironfounders, Glebe",Bird and Lucas,"Glebe NSW 2037, Australia",151.18541,-33.87978,APPROXIMATE,"('Glebe NSW 2037, Australia', 151.18541, -33.87978, 'APPROXIMATE')"
Botany Wetlands,Botany Wetlands,"Sydney Park Wetlands, Sydney Park Rd, Erskineville NSW 2043, Australia",151.1846735,-33.9113394,GEOMETRIC_CENTER,"('Sydney Park Wetlands, Sydney Park Rd, Erskineville NSW 2043, Australia', 151.1846735, -33.9113394, 'GEOMETRIC_CENTER')"
"Bourke Street, East Sydney",Bourke Street,"Bourke St, Sydney NSW, Australia",151.2153371,-33.8871297,GEOMETRIC_CENTER,"('Bourke St, Sydney NSW, Australia', 151.2153371, -33.8871297, 'GEOMETRIC_CENTER')"
"Caddie Estate, Cattai National Park",Caddie Estate,"Cattai National Park, Cattai NSW 2756, Australia",150.9076477,-33.5539303,GEOMETRIC_CENTER,"('Cattai National Park, Cattai NSW 2756, Australia', 150.9076477, -33.5539303, 'GEOMETRIC_CENTER')"
Caddie Park,Caddie Park,"Caddie Ave, New Park NSW 2474, Australia",152.9937695,-28.6071703,GEOMETRIC_CENTER,"('Caddie Ave, New Park NSW 2474, Australia', 152.9937695, -28.6071703, 'GEOMETRIC_CENTER')"
Campbell's Cove,Campbell's Cove,"New South Wales 2000, Australia",151.2095869,-33.8564821,GEOMETRIC_CENTER,"('New South Wales 2000, Australia', 151.2095869, -33.8564821, 'GEOMETRIC_CENTER')"
"Campbell's Cove, The Rocks",Campbell's Cove,"Campbell's Cove Lookout, 4 Circular Quay W, The Rocks NSW 2000, Australia",151.2103825,-33.8569197,Great - Google,"(""Campbell's Cove Lookout, 4 Circular Quay W, The Rocks NSW 2000, Australia"", 151.2103825, -33.8569197, 'Great - Google')"
"Canonbury, Darling Point",Canonbury,"159 Darling Point Rd, Darling Point NSW 2027, Australia",151.2393694,-33.8674215,Great - Google,"('159 Darling Point Rd, Darling Point NSW 2027, Australia', 151.2393694, -33.8674215, 'Great - Google')"
"Carlow Street Drill Hall, Crows Nest",Carlow Street Drill Hall,"Carlow St, Crows Nest NSW 2065, Australia",151.2060634,-33.8305176,GEOMETRIC_CENTER,"('Carlow St, Crows Nest NSW 2065, Australia', 151.2060634, -33.8305176, 'GEOMETRIC_CENTER')"
"Central Station, Sydney",Central Station,"Central, Haymarket NSW 2000, Australia",151.2066712,-33.8823949,GEOMETRIC_CENTER,"('Central, Haymarket NSW 2000, Australia', 151.2066712, -33.8823949, 'GEOMETRIC_CENTER')"
Chullora Railway Workshops,Chullora Railway Workshops,"Gate 3 Worth St, Chullora NSW 2190, Australia",151.0584068,-33.8863062,GEOMETRIC_CENTER,"('Gate 3 Worth St, Chullora NSW 2190, Australia', 151.0584068, -33.8863062, 'GEOMETRIC_CENTER')"
Circular Quay Railway Station,Circular Quay Railway Station,"Circular Quay, Sydney NSW 2000, Australia",151.210709,-33.86116510000001,GEOMETRIC_CENTER,"('Circular Quay, Sydney NSW 2000, Australia', 151.210709, -33.86116510000001, 'GEOMETRIC_CENTER')"
"Constitution Hill Grand United Centenary Centre, Toongabbie",Constitution Hill Grand United Centenary Centre,"Centenary Ave, Northmead NSW 2152, Australia",150.9828643,-33.7888634,GEOMETRIC_CENTER,"('Centenary Ave, Northmead NSW 2152, Australia', 150.9828643, -33.7888634, 'GEOMETRIC_CENTER')"
"Crescent Reach Reserve, South Maroota",Crescent Reach Reserve,"South Maroota NSW 2756, Australia",150.9485,-33.5241,APPROXIMATE,"('South Maroota NSW 2756, Australia', 150.9485, -33.5241, 'APPROXIMATE')"
"CSR Site, Jacksons Landing, Pyrmont",CSR Site,"52B Bowman St, Pyrmont NSW 2009, Australia",151.1901253,-33.8671707,Great - Google,"('52B Bowman St, Pyrmont NSW 2009, Australia', 151.1901253, -33.8671707, 'Great - Google')"
"Dairy Cottage, Parramatta Park",Dairy Cottage,"Parramatta NSW 2150, Australia",150.9967529,-33.80668540000001,GEOMETRIC_CENTER,"('Parramatta NSW 2150, Australia', 150.9967529, -33.80668540000001, 'GEOMETRIC_CENTER')"
"Destitute Children's Asylum, Prince of Wales Hospital, Randwick",Destitute Children's Asylum,"320-346 Barker St, Randwick NSW 2031, Australia",151.2384481,-33.9187456,Great - Google,"('320-346 Barker St, Randwick NSW 2031, Australia', 151.2384481, -33.9187456, 'Great - Google')"
"Devine's Hill, The Old Great North Road Wiseman's Ferry",Devine's Hill,"LOT 139 Old Great Northern Rd, Wisemans Ferry NSW 2775, Australia",150.9849042,-33.3752084,Great - Google,"('LOT 139 Old Great Northern Rd, Wisemans Ferry NSW 2775, Australia', 150.9849042, -33.3752084, 'Great - Google')"
Downing Centre Local Courts,Downing Centre Local Courts,"4, 143-147 Liverpool St, Sydney NSW 2000, Australia",151.2090603,-33.8774411,Great - Google,"('4, 143-147 Liverpool St, Sydney NSW 2000, Australia', 151.2090603, -33.8774411, 'Great - Google')"
"Downshire Street - Ferry Lane, Pottinger Park Playground",Downshire Street - Ferry Lane,"New South Wales, Australia",146.921099,-31.2532183,APPROXIMATE,"('New South Wales, Australia', 146.921099, -31.2532183, 'APPROXIMATE')"
"Edwin Davey Flour Mill, Ultimo",Edwin Davey Flour Mill,"Ultimo NSW 2007, Australia",151.19696,-33.88223,APPROXIMATE,"('Ultimo NSW 2007, Australia', 151.19696, -33.88223, 'APPROXIMATE')"
"Elouera Estate, Cherrybrook",Elouera Estate,"3 Kitchener Rd, Cherrybrook NSW 2126, Australia",151.0559609,-33.7309802,Great - Google,"('3 Kitchener Rd, Cherrybrook NSW 2126, Australia', 151.0559609, -33.7309802, 'Great - Google')"
Emu Plains Quarry,Emu Plains Quarry,"Railway St, Emu Plains NSW 2750, Australia",150.671627,-33.741705,GEOMETRIC_CENTER,"('Railway St, Emu Plains NSW 2750, Australia', 150.671627, -33.741705, 'GEOMETRIC_CENTER')"
"Essex Street, The Rocks",Essex Street,"Essex St, The Rocks NSW 2000, Australia",151.207023,-33.8620482,GEOMETRIC_CENTER,"('Essex St, The Rocks NSW 2000, Australia', 151.207023, -33.8620482, 'GEOMETRIC_CENTER')"
Eveleigh Railway Locomotive Shops,Eveleigh Railway Locomotive Shops,"Bay, 1/2 Locomotive St, Eveleigh NSW 2015, Australia",151.1962968,-33.8947311,Great - Google,"('Bay, 1/2 Locomotive St, Eveleigh NSW 2015, Australia', 151.1962968, -33.8947311, 'Great - Google')"
Excelsior Reserve,Excelsior Reserve,"Bidjigal Reserve, Baulkham Hills NSW 2153, Australia",151.0095358,-33.7627374,GEOMETRIC_CENTER,"('Bidjigal Reserve, Baulkham Hills NSW 2153, Australia', 151.0095358, -33.7627374, 'GEOMETRIC_CENTER')"
"Excelsior Reserve, Northmead",Excelsior Reserve,"Bidjigal Reserve, Baulkham Hills NSW 2153, Australia",151.0095358,-33.7627374,GEOMETRIC_CENTER,"('Bidjigal Reserve, Baulkham Hills NSW 2153, Australia', 151.0095358, -33.7627374, 'GEOMETRIC_CENTER')"
"F.L. Barker Wool Store, Pyrmont",F.L. Barker Wool Store,"Florida, USA",-81.5157535,27.6648274,APPROXIMATE,"('Florida, USA', -81.5157535, 27.6648274, 'APPROXIMATE')"
"Fig Tree Free Baths, Andrew 'Boy' Charlton Pool, Sydney",Fig Tree Free Baths,"1c Mrs Macquaries Rd, Sydney NSW 2000, Australia",151.2217476,-33.8634677,Great - Google,"('1c Mrs Macquaries Rd, Sydney NSW 2000, Australia', 151.2217476, -33.8634677, 'Great - Google')"
"Finch's Line, The Old Great North Road, Wiseman's Ferry",Finch's Line,"Finches Line Trail Head, Finches Line Walking Track, Lower MacDonald NSW 2775, Australia",150.9977576,-33.3925106,GEOMETRIC_CENTER,"('Finches Line Trail Head, Finches Line Walking Track, Lower MacDonald NSW 2775, Australia', 150.9977576, -33.3925106, 'GEOMETRIC_CENTER')"
"First Field Hospital Site, Holsworthy",First Field Hospital Site,"Holsworthy NSW 2173, Australia",150.9498811,-33.9565362,APPROXIMATE,"('Holsworthy NSW 2173, Australia', 150.9498811, -33.9565362, 'APPROXIMATE')"
"Former No. 110 Substation, Powell Street, Waterloo",Former No. 110 Substation,"Powell St, Waterloo NSW 2017, Australia",151.2070386,-33.9019951,GEOMETRIC_CENTER,"('Powell St, Waterloo NSW 2017, Australia', 151.2070386, -33.9019951, 'GEOMETRIC_CENTER')"
"Free Baths for Ladies, Archaeology of Bathing, sydney",Free Baths for Ladies,"Sydney NSW 2000, Australia",151.2205299,-33.8652038,GEOMETRIC_CENTER,"('Sydney NSW 2000, Australia', 151.2205299, -33.8652038, 'GEOMETRIC_CENTER')"
"Garvan Institute of Medical Research, Darlinghurst",Garvan Institute of Medical Research,"384 Victoria St, Darlinghurst NSW 2010, Australia",151.2214505,-33.8791267,Great - Google,"('384 Victoria St, Darlinghurst NSW 2010, Australia', 151.2214505, -33.8791267, 'Great - Google')"
"General Bourke Hotel, Parramatta",General Bourke Hotel,"74 Church St, Parramatta NSW 2150, Australia",151.0041763,-33.820391,Great - Google,"('74 Church St, Parramatta NSW 2150, Australia', 151.0041763, -33.820391, 'Great - Google')"
"George Street North, The Rocks",George Street North,"George St, The Rocks NSW 2000, Australia",151.2086337,-33.8602602,GEOMETRIC_CENTER,"('George St, The Rocks NSW 2000, Australia', 151.2086337, -33.8602602, 'GEOMETRIC_CENTER')"
"Glenwood Park, Parklea",Glenwood Park,"Glenwood Park Dr, Glenwood NSW 2768, Australia",150.9379262,-33.733598,GEOMETRIC_CENTER,"('Glenwood Park Dr, Glenwood NSW 2768, Australia', 150.9379262, -33.733598, 'GEOMETRIC_CENTER')"
"Gloucester Street, The Rocks",Gloucester Street,"Gloucester St, The Rocks NSW 2000, Australia",151.2066442,-33.8615623,GEOMETRIC_CENTER,"('Gloucester St, The Rocks NSW 2000, Australia', 151.2066442, -33.8615623, 'GEOMETRIC_CENTER')"
"Goodlet and Smith Ltd. Brickworks, Granville",Goodlet and Smith Ltd. Brickworks,"Brickworks Dr, Granville NSW 2142, Australia",150.9963682,-33.8315567,GEOMETRIC_CENTER,"('Brickworks Dr, Granville NSW 2142, Australia', 150.9963682, -33.8315567, 'GEOMETRIC_CENTER')"
"Governor's Bath House, Farm Cove, Royal Botanic Gardens, Sydney",Governor's Bath House,"Royal Botanic Gardens, Mrs Macquaries Rd, Sydney NSW 2000, Australia",151.2165708,-33.8641859,GEOMETRIC_CENTER,"('Royal Botanic Gardens, Mrs Macquaries Rd, Sydney NSW 2000, Australia', 151.2165708, -33.8641859, 'GEOMETRIC_CENTER')"
"H.M.A.S. Kuttabul, Potts Point",H.M.A.S. Kuttabul,"18 Wylde St, Potts Point NSW 2011, Australia",151.2255114,-33.8669344,Great - Google,"('18 Wylde St, Potts Point NSW 2011, Australia', 151.2255114, -33.8669344, 'Great - Google')"
"Hickson Road, The Rocks",Hickson Road,"Hickson Rd, The Rocks NSW 2000, Australia",151.2072913,-33.855636,GEOMETRIC_CENTER,"('Hickson Rd, The Rocks NSW 2000, Australia', 151.2072913, -33.855636, 'GEOMETRIC_CENTER')"
"Hill Street, Surry Hills",Hill Street,"Hill St, Surry Hills NSW 2010, Australia",151.2166143,-33.8831376,GEOMETRIC_CENTER,"('Hill St, Surry Hills NSW 2010, Australia', 151.2166143, -33.8831376, 'GEOMETRIC_CENTER')"
"Holtermann Estate, Crows Nest",Holtermann Estate,"Holtermann St, Crows Nest NSW 2065, Australia",151.2036602,-33.8251272,GEOMETRIC_CENTER,"('Holtermann St, Crows Nest NSW 2065, Australia', 151.2036602, -33.8251272, 'GEOMETRIC_CENTER')"
Homebush Bay,Homebush Bay,"39/8 Ave of the Americas, Newington NSW 2127, Australia",151.054262,-33.832887,Great - Google,"('39/8 Ave of the Americas, Newington NSW 2127, Australia', 151.054262, -33.832887, 'Great - Google')"
"Hornby Lighthouse, South Head",Hornby Lighthouse,"S Head Heritage Trail, Watsons Bay NSW 2030, Australia",151.2809857,-33.83356750000001,GEOMETRIC_CENTER,"('S Head Heritage Trail, Watsons Bay NSW 2030, Australia', 151.2809857, -33.83356750000001, 'GEOMETRIC_CENTER')"
Hunters Hill High School,Hunters Hill High School,"Please remove 1 or change to LOT 1. A house has the same address, 1 Reiby Rd, Hunters Hill NSW 2110, Australia",151.1484145,-33.8327463,Great - Google,"('Please remove 1 or change to LOT 1. A house has the same address, 1 Reiby Rd, Hunters Hill NSW 2110, Australia', 151.1484145, -33.8327463, 'Great - Google')"
"Jericho Farm House Ruins, Riverstone",Jericho Farm House Ruins,"Farm Rd, Riverstone NSW 2765, Australia",150.84067,-33.6771453,GEOMETRIC_CENTER,"('Farm Rd, Riverstone NSW 2765, Australia', 150.84067, -33.6771453, 'GEOMETRIC_CENTER')"
"Jerusalem Park, Oxford Falls",Jerusalem Park,"Oxford Falls Peace Park, Dreadnought Rd, Oxford Falls NSW 2100, Australia",151.2451707,-33.7397205,GEOMETRIC_CENTER,"('Oxford Falls Peace Park, Dreadnought Rd, Oxford Falls NSW 2100, Australia', 151.2451707, -33.7397205, 'GEOMETRIC_CENTER')"
"John Bardsley & Sons, Leichhardt",John Bardsley & Sons,not found,unknown,unknown,unknown,"('not found', 'unknown', 'unknown', 'unknown')"
Katoomba Public School,Katoomba Public School,"18 Merriwa St, Katoomba NSW 2780, Australia",150.3137285,-33.7191692,Great - Google,"('18 Merriwa St, Katoomba NSW 2780, Australia', 150.3137285, -33.7191692, 'Great - Google')"
La Perouse and Bare Island Historic Sites,La Perouse and Bare Island Historic Sites,"Bare Island, New South Wales 2019, Australia",151.2311911,-33.9921164,APPROXIMATE,"('Bare Island, New South Wales 2019, Australia', 151.2311911, -33.9921164, 'APPROXIMATE')"
"Little Pier Street Precinct, 17 Little Pier St, Haymarket",Little Pier Street Precinct,"17 Little Pier St, Darling Harbour NSW 2000, Australia",151.2027112,-33.8774511,Great - Google,"('17 Little Pier St, Darling Harbour NSW 2000, Australia', 151.2027112, -33.8774511, 'Great - Google')"
"Lot 20 DP 856306, Wisemans Ferry, NSW",Lot 20 DP 856306,"Wisemans Ferry NSW 2775, Australia",150.985,-33.381944,APPROXIMATE,"('Wisemans Ferry NSW 2775, Australia', 150.985, -33.381944, 'APPROXIMATE')"
"Lower Fort St, Millers Point",Lower Fort St,"Lower Fort St, Millers Point NSW 2000, Australia",151.206273,-33.8574705,GEOMETRIC_CENTER,"('Lower Fort St, Millers Point NSW 2000, Australia', 151.206273, -33.8574705, 'GEOMETRIC_CENTER')"
"Luddenham, Mulgoa",Luddenham,"Luddenham NSW 2745, Australia",150.7146,-33.8807,APPROXIMATE,"('Luddenham NSW 2745, Australia', 150.7146, -33.8807, 'APPROXIMATE')"
"Luke Muras Building, Waterloo",Luke Muras Building,"Waterloo NSW 2017, Australia",151.20664,-33.9004,APPROXIMATE,"('Waterloo NSW 2017, Australia', 151.20664, -33.9004, 'APPROXIMATE')"
"MacDonaldtown Triangle, Macdonaldtown Station",MacDonaldtown Triangle,"Macdonaldtown Station, Eveleigh NSW 2015, Australia",151.1863392,-33.8967611,GEOMETRIC_CENTER,"('Macdonaldtown Station, Eveleigh NSW 2015, Australia', 151.1863392, -33.8967611, 'GEOMETRIC_CENTER')"
"MacPherson Street Tank, Waverley",MacPherson Street Tank,"273 Bronte Rd, Waverley NSW 2024, Australia",151.2545342,-33.9021517,Great - Google,"('273 Bronte Rd, Waverley NSW 2024, Australia', 151.2545342, -33.9021517, 'Great - Google')"
"Macquarie Farm, St Ives.",Macquarie Farm,"St. Ives NSW 2075, Australia",151.16844,-33.72136,APPROXIMATE,"('St. Ives NSW 2075, Australia', 151.16844, -33.72136, 'APPROXIMATE')"
Macquarie Lighthouse,Macquarie Lighthouse,"Old South Head Rd, Vaucluse NSW 2030, Australia",151.2851677,-33.8539454,GEOMETRIC_CENTER,"('Old South Head Rd, Vaucluse NSW 2030, Australia', 151.2851677, -33.8539454, 'GEOMETRIC_CENTER')"
"Malabar, Orange",Malabar,"Malabar Rd, Orange NSW 2800, Australia",149.1226199,-33.3160871,GEOMETRIC_CENTER,"('Malabar Rd, Orange NSW 2800, Australia', 149.1226199, -33.3160871, 'GEOMETRIC_CENTER')"
"Manning House, University of Sydney",Manning House,"Manning House, Manning Rd, Camperdown NSW 2050, Australia",151.1876276,-33.8868851,Great - Google,"('Manning House, Manning Rd, Camperdown NSW 2050, Australia', 151.1876276, -33.8868851, 'Great - Google')"
Margaret Farm St Marys,Margaret Farm St Marys,"St Marys NSW 2760, Australia",150.7708274,-33.7589212,APPROXIMATE,"('St Marys NSW 2760, Australia', 150.7708274, -33.7589212, 'APPROXIMATE')"
"Maria Island National Park, Tasmania",Maria Island National Park,"Maria Island National Park, Maria Island TAS 7190, Australia",148.0649698,-42.6451462,GEOMETRIC_CENTER,"('Maria Island National Park, Maria Island TAS 7190, Australia', 148.0649698, -42.6451462, 'GEOMETRIC_CENTER')"
"Middle Head, Sydney Harbour",Middle Head,"Middle Head, Mosman NSW 2088, Australia",151.2669162,-33.8259481,APPROXIMATE,"('Middle Head, Mosman NSW 2088, Australia', 151.2669162, -33.8259481, 'APPROXIMATE')"
"Moore's Wharf Bond Store, Walsh Bay",Moore's Wharf Bond Store,"Walsh Bay, New South Wales, Australia",151.2024125,-33.849291,APPROXIMATE,"('Walsh Bay, New South Wales, Australia', 151.2024125, -33.849291, 'APPROXIMATE')"
Mortlake Gasworks,Mortlake Gasworks,"Mortlake NSW 2137, Australia",151.1060971,-33.8405772,APPROXIMATE,"('Mortlake NSW 2137, Australia', 151.1060971, -33.8405772, 'APPROXIMATE')"
"Old Northern Road, Maroota",Old Northern Road,"Old Northern Rd, Maroota NSW 2756, Australia",150.9948038,-33.4597898,GEOMETRIC_CENTER,"('Old Northern Rd, Maroota NSW 2756, Australia', 150.9948038, -33.4597898, 'GEOMETRIC_CENTER')"
"Old Sydney Gaol, 199 George Street, Sydney",Old Sydney Gaol,"199 George St, The Rocks NSW 2000, Australia",151.2076032,-33.8615633,Great - Google,"('199 George St, The Rocks NSW 2000, Australia', 151.2076032, -33.8615633, 'Great - Google')"
Opera House Carpark,Opera House Carpark,"2A Macquarie St, Sydney NSW 2000, Australia",151.2135232,-33.8593398,Great - Google,"('2A Macquarie St, Sydney NSW 2000, Australia', 151.2135232, -33.8593398, 'Great - Google')"
"Original Supreme Court Site, 102 Elizabeth Street, Sydney",Original Supreme Court Site,"184 Phillip St, Sydney NSW 2000, Australia",151.211674,-33.869196,Great - Google,"('184 Phillip St, Sydney NSW 2000, Australia', 151.211674, -33.869196, 'Great - Google')"
Oyster Cove,Oyster Cove,"Oyster Cove NSW 2318, Australia",151.9550446,-32.7416523,APPROXIMATE,"('Oyster Cove NSW 2318, Australia', 151.9550446, -32.7416523, 'APPROXIMATE')"
"P.J. Gallaghers Hotel, Parramatta",P.J. Gallaghers Hotel,"74 Church St, Parramatta NSW 2150, Australia",151.0041763,-33.820391,Great - Google,"('74 Church St, Parramatta NSW 2150, Australia', 151.0041763, -33.820391, 'Great - Google')"
"Paragon Iron Foundry, Pyrmont",Paragon Iron Foundry,"Pyrmont NSW 2009, Australia",151.1956918,-33.8737167,APPROXIMATE,"('Pyrmont NSW 2009, Australia', 151.1956918, -33.8737167, 'APPROXIMATE')"
"Park Street Tunnel, 250 Pitt Street, Sydney",Park Street Tunnel,"250 Pitt St, Sydney NSW 2000, Australia",151.2085117,-33.8725911,Great - Google,"('250 Pitt St, Sydney NSW 2000, Australia', 151.2085117, -33.8725911, 'Great - Google')"
Parklea,Parklea,"Parklea NSW 2768, Australia",150.919,-33.7291,APPROXIMATE,"('Parklea NSW 2768, Australia', 150.919, -33.7291, 'APPROXIMATE')"
"Pedestrian Mall, Bondi Junction",Pedestrian Mall,"500 Oxford St, Bondi Junction NSW 2022, Australia",151.2506851,-33.8923492,Great - Google,"('500 Oxford St, Bondi Junction NSW 2022, Australia', 151.2506851, -33.8923492, 'Great - Google')"
"Phoenix Ironworks, Rhodes",Phoenix Ironworks,"Rhodes NSW 2138, Australia",151.08569,-33.82821,APPROXIMATE,"('Rhodes NSW 2138, Australia', 151.08569, -33.82821, 'APPROXIMATE')"
"Pioneer's Memorial Park, Liverpool",Pioneer's Memorial Park,"Liverpool Pioneers' Memorial Park, 1/51 Macquarie St, Liverpool NSW 2170, Australia",150.9242997,-33.9154903,Great - Google,"(""Liverpool Pioneers' Memorial Park, 1/51 Macquarie St, Liverpool NSW 2170, Australia"", 150.9242997, -33.9154903, 'Great - Google')"
Pitt St Uniting Church,Pitt St Uniting Church,"264 Pitt St, Sydney NSW 2000, Australia",151.2082494,-33.8735789,Great - Google,"('264 Pitt St, Sydney NSW 2000, Australia', 151.2082494, -33.8735789, 'Great - Google')"
Pitt Town Milk Factory,Pitt Town Milk Factory,"141 Alison Rd, Wyong NSW 2259, Australia",151.4065858,-33.2767591,Great - Google,"('141 Alison Rd, Wyong NSW 2259, Australia', 151.4065858, -33.2767591, 'Great - Google')"
Pottinger Park Playground,Pottinger Park Playground,"36 Pottinger St, Dawes Point NSW 2000, Australia",151.2057154,-33.8571962,Great - Google,"('36 Pottinger St, Dawes Point NSW 2000, Australia', 151.2057154, -33.8571962, 'Great - Google')"
Pyrmont 'A' Power Station,Pyrmont 'A' Power Station,"28 Robert St, Rozelle NSW 2039, Australia",151.1769812,-33.8661818,Great - Google,"('28 Robert St, Rozelle NSW 2039, Australia', 151.1769812, -33.8661818, 'Great - Google')"
Pyrmont Incinerators,Pyrmont Incinerators,"Pyrmont NSW 2009, Australia",151.1956918,-33.8737167,APPROXIMATE,"('Pyrmont NSW 2009, Australia', 151.1956918, -33.8737167, 'APPROXIMATE')"
"Queen Street Precinct, Campbelltown",Queen Street Precinct,"Queen St, Campbelltown NSW 2560, Australia",150.8164663,-34.0642022,GEOMETRIC_CENTER,"('Queen St, Campbelltown NSW 2560, Australia', 150.8164663, -34.0642022, 'GEOMETRIC_CENTER')"
"Railway Bridge, Norton Street Leichhardt ",Railway Bridge,"Glebe Island Bridge, Victoria Road 2037, Bank St, Pyrmont NSW 2009, Australia",151.185737,-33.8682481,GEOMETRIC_CENTER,"('Glebe Island Bridge, Victoria Road 2037, Bank St, Pyrmont NSW 2009, Australia', 151.185737, -33.8682481, 'GEOMETRIC_CENTER')"
"RAN Stores, Rydalmere",RAN Stores,"Rydalmere NSW 2116, Australia",151.0417407,-33.8122993,APPROXIMATE,"('Rydalmere NSW 2116, Australia', 151.0417407, -33.8122993, 'APPROXIMATE')"
Randwick Bus Depot,Randwick Bus Depot,"34-36 King St, Randwick NSW 2031, Australia",151.2359272,-33.9064537,Great - Google,"('34-36 King St, Randwick NSW 2031, Australia', 151.2359272, -33.9064537, 'Great - Google')"
Randwick Naval Stores,Randwick Naval Stores,"Randwick NSW 2031, Australia",151.23653,-33.91643,APPROXIMATE,"('Randwick NSW 2031, Australia', 151.23653, -33.91643, 'APPROXIMATE')"
"Rivercentre site, Parramatta",Rivercentre site,"Parramatta NSW 2150, Australia",151.001111,-33.815,APPROXIMATE,"('Parramatta NSW 2150, Australia', 151.001111, -33.815, 'APPROXIMATE')"
Rozelle Bay,Rozelle Bay,"Rozelle Bay, New South Wales, Australia",151.1792842,-33.8710628,APPROXIMATE,"('Rozelle Bay, New South Wales, Australia', 151.1792842, -33.8710628, 'APPROXIMATE')"
"Saint Bartholomew's Church, Prospect",Saint Bartholomew's Church,"Ponds Rd, Prospect NSW 2148, Australia",150.9167809,-33.8041877,GEOMETRIC_CENTER,"('Ponds Rd, Prospect NSW 2148, Australia', 150.9167809, -33.8041877, 'GEOMETRIC_CENTER')"
"Saint Margaret's East, Surry Hills",Saint Margaret's East,"Church Ln, Surry Hills NSW 2010, Australia",151.2162039,-33.882561,GEOMETRIC_CENTER,"('Church Ln, Surry Hills NSW 2010, Australia', 151.2162039, -33.882561, 'GEOMETRIC_CENTER')"
"Sargents' Factory, East Sydney",Sargents' Factory,"83 Roper Rd, Colyton NSW 2760, Australia",150.8033401,-33.78344209999999,Great - Google,"('83 Roper Rd, Colyton NSW 2760, Australia', 150.8033401, -33.78344209999999, 'Great - Google')"
Scheyville Former Officer Training Camp,Scheyville Former Officer Training Camp,"Scheyville NSW 2756, Australia",150.88291,-33.6112,APPROXIMATE,"('Scheyville NSW 2756, Australia', 150.88291, -33.6112, 'APPROXIMATE')"
"Shepherds Gully, The Old Great North Road",Shepherds Gully,"128 Eelah Rd, Mindaribba NSW 2320, Australia",151.5765023,-32.6425731,Great - Google,"('128 Eelah Rd, Mindaribba NSW 2320, Australia', 151.5765023, -32.6425731, 'Great - Google')"
Silverwater Gaol,Silverwater Gaol,"Holker St, Silverwater NSW 2128, Australia",151.0554613,-33.8308128,GEOMETRIC_CENTER,"('Holker St, Silverwater NSW 2128, Australia', 151.0554613, -33.8308128, 'GEOMETRIC_CENTER')"
"Spring Hill, McGrath's Hill",Spring Hill,"1 Wingate Rd, Mcgraths Hill NSW 2756, Australia",150.8353892,-33.6226188,Great - Google,"('1 Wingate Rd, Mcgraths Hill NSW 2756, Australia', 150.8353892, -33.6226188, 'Great - Google')"
"St Patricks Cemetery, North Parramatta",St Patricks Cemetery,"St Patricks Cemetery, North Parramatta NSW 2151, Australia",151.0060212,-33.8018816,GEOMETRIC_CENTER,"('St Patricks Cemetery, North Parramatta NSW 2151, Australia', 151.0060212, -33.8018816, 'GEOMETRIC_CENTER')"
"Stanhope Park, Parklea",Stanhope Park,"Stanhope Pkwy, Sydney NSW, Australia",150.912921,-33.7163944,GEOMETRIC_CENTER,"('Stanhope Pkwy, Sydney NSW, Australia', 150.912921, -33.7163944, 'GEOMETRIC_CENTER')"
"State Abattoir, Homebush Bay",State Abattoir,"Homebush NSW 2140, Australia",151.08234,-33.86405999999999,APPROXIMATE,"('Homebush NSW 2140, Australia', 151.08234, -33.86405999999999, 'APPROXIMATE')"
"Station Street Drill Hall, Homebush",Station Street Drill Hall,"Station St, Homebush NSW 2140, Australia",151.0870396,-33.865736,GEOMETRIC_CENTER,"('Station St, Homebush NSW 2140, Australia', 151.0870396, -33.865736, 'GEOMETRIC_CENTER')"
Strides Boat Yard,Strides Boat Yard,"91 Hannell St, Wickham NSW 2293, Australia",151.760539,-32.920975,Great - Google,"('91 Hannell St, Wickham NSW 2293, Australia', 151.760539, -32.920975, 'Great - Google')"
Sydney City Mission Hostel,Sydney City Mission Hostel,"7 Wilmot St, Sydney NSW 2000, Australia",151.207444,-33.8753912,Great - Google,"('7 Wilmot St, Sydney NSW 2000, Australia', 151.207444, -33.8753912, 'Great - Google')"
"Sydney Smelting and Refining Company, Hunters Hill",Sydney Smelting and Refining Company,"Hunters Hill NSW 2110, Australia",151.14366,-33.8337,APPROXIMATE,"('Hunters Hill NSW 2110, Australia', 151.14366, -33.8337, 'APPROXIMATE')"
"Taylor's Square, Darlinghurs",Taylor's Square,"Taylor Square, New South Wales 2010, Australia",151.2168467,-33.8809797,APPROXIMATE,"('Taylor Square, New South Wales 2010, Australia', 151.2168467, -33.8809797, 'APPROXIMATE')"
"The Competition Site, Pyrmont",The Competition Site,"Pyrmont NSW 2009, Australia",151.1956918,-33.8737167,APPROXIMATE,"('Pyrmont NSW 2009, Australia', 151.1956918, -33.8737167, 'APPROXIMATE')"
"The Domain and Botanic Gardens, Sydney",The Domain and Botanic Gardens,"Royal Botanic Gardens, Mrs Macquaries Rd, Sydney NSW 2000, Australia",151.2165708,-33.8641859,GEOMETRIC_CENTER,"('Royal Botanic Gardens, Mrs Macquaries Rd, Sydney NSW 2000, Australia', 151.2165708, -33.8641859, 'GEOMETRIC_CENTER')"
"Third Runway, Sydney",Third Runway,"Sydney Airport (SYD), Sydney NSW 2020, Australia",151.1752764,-33.9399228,GEOMETRIC_CENTER,"('Sydney Airport (SYD), Sydney NSW 2020, Australia', 151.1752764, -33.9399228, 'GEOMETRIC_CENTER')"
Toongabbie Government Farm,Toongabbie Government Farm,"Toongabbie NSW 2146, Australia",150.95645,-33.78606,APPROXIMATE,"('Toongabbie NSW 2146, Australia', 150.95645, -33.78606, 'APPROXIMATE')"
"Tramways Workshops, Sydney",Tramways Workshops,"Pitt St, Loftus NSW 2232, Australia",151.051937,-34.04505,GEOMETRIC_CENTER,"('Pitt St, Loftus NSW 2232, Australia', 151.051937, -34.04505, 'GEOMETRIC_CENTER')"
"Tulloch's Phoenix Site, Concord",Tulloch's Phoenix Site,"Concord NSW 2137, Australia",151.10191,-33.85985,APPROXIMATE,"('Concord NSW 2137, Australia', 151.10191, -33.85985, 'APPROXIMATE')"
"Walsh Bay, Sydney",Walsh Bay,"Walsh Bay, New South Wales, Australia",151.2024125,-33.849291,APPROXIMATE,"('Walsh Bay, New South Wales, Australia', 151.2024125, -33.849291, 'APPROXIMATE')"
"Warren Park, Marrickville",Warren Park,"Warren Park, Thornley St, Marrickville NSW 2204, Australia",151.1499641,-33.9219386,GEOMETRIC_CENTER,"('Warren Park, Thornley St, Marrickville NSW 2204, Australia', 151.1499641, -33.9219386, 'GEOMETRIC_CENTER')"
"Wentworth Park, Sydney",Wentworth Park,"Wentworth Park Sporting Complex, L2/3 Wentworth Park Rd, Glebe NSW 2037, Australia",151.1922027,-33.8775778,Great - Google,"('Wentworth Park Sporting Complex, L2/3 Wentworth Park Rd, Glebe NSW 2037, Australia', 151.1922027, -33.8775778, 'Great - Google')"
"White's Creek, Leichhardt",White's Creek,"Whites Creek, New South Wales, Australia",151.1688552,-33.8762288,APPROXIMATE,"('Whites Creek, New South Wales, Australia', 151.1688552, -33.8762288, 'APPROXIMATE')"
"Wilton Grasslands Historic Site, Wilton",Wilton Grasslands Historic Site,"Wilton NSW 2571, Australia",150.7,-34.233333,APPROXIMATE,"('Wilton NSW 2571, Australia', 150.7, -34.233333, 'APPROXIMATE')"
Windsor Military Guardhouse,Windsor Military Guardhouse,"Windsor NSW 2756, Australia",150.817222,-33.615,APPROXIMATE,"('Windsor NSW 2756, Australia', 150.817222, -33.615, 'APPROXIMATE')"
